LEMUR-2-HUBBLE-4        
1 64565U 25135AP  26193.79653543  .00001136  00000+0  11277-3 0  9996
2 64565  97.7717 307.4051 0002486 168.7052 191.4224 14.93681491 57691
LEMUR-2-SEJONG-2        
1 64586U 25135BL  26193.84182539  .00002190  00000+0  19593-3 0  9997
2 64586  97.7704 308.6924 0003802 229.8380 130.2509 14.96901348 57784
LEMUR-2-HUBBLE-5        
1 64840U 25135BT  26193.80621837  .00001096  00000+0  10766-3 0  9992
2 64840  97.7738 308.0811 0004200 245.1864 114.8920 14.94209700 57735
LEMUR-2-KARENDARRELL    
1 64841U 25135BU  26193.79574535  .00004814  00000+0  38647-3 0  9992
2 64841  97.7709 309.9685 0012186 111.6941 248.5581 15.00479897 57853
LEMUR-2-LUCILLE-ROSE    
1 65403U 25135BV  26193.76918003  .00003766  00000+0  30337-3 0  9999
2 65403  97.7712 309.9783 0014619 196.4667 163.6083 15.00471753 52470
LEMUR-2-AFFIE-WAUWIE    
1 66295U 25248C   26193.42777828  .00012562  00000+0  45878-3 0  9995
2 66295  45.3911 338.1335 0008724 238.0839 121.9202 15.28172277 38452
OTTER SDM               
1 66678U 25276N   26193.72748370  .00003744  00000+0  17678-3 0  9993
2 66678  97.4208 266.7825 0004236 265.7199  94.3553 15.20039663 34297
LEMUR-2-STAS-GORBUK     
1 66686U 25276W   26193.74827235  .00003778  00000+0  18040-3 0  9993
2 66686  97.4243 266.8551 0003456 260.6907  99.3937 15.19644338 34296
LEMUR-2-TEODOR          
1 66768U 25276DG  26193.76974610  .00003610  00000+0  16439-3 0  9991
2 66768  97.4147 267.1448 0002281  89.7179 270.4318 15.21322077 34331
LEMUR-2-LAILA           
1 66776U 25276DQ  26193.73990767  .00003519  00000+0  15926-3 0  9996
2 66776  97.4170 267.2527 0002909  97.9400 262.2166 15.21547275 34339
LEMUR-2-CELIJO-SB-PK    
1 66781U 25276DW  26193.71712439  .00003290  00000+0  26718-3 0  9995
2 66781  97.5200 263.6519 0007109  70.2269 289.9721 15.00270997 26453
LEMUR-2-FINNIAN         
1 66782U 25276DX  26193.75464174  .00001734  00000+0  14177-3 0  9997
2 66782  97.5339 263.9508 0007886   9.8225 350.3152 15.00601115 23830
LEMUR-2-STARLIGHT       
1 66783U 25276DY  26193.66644494  .00003675  00000+0  30466-3 0  9998
2 66783  97.5235 263.4338 0014811  54.7591 305.5016 14.99335039 34012
LEMUR-2-TARTIFLETTE     
1 66784U 25276DZ  26193.73155904  .00003516  00000+0  29192-3 0  9998
2 66784  97.5235 263.5049 0013873  62.7426 297.5209 14.99322354 34027
LEMUR-2-VUKASIN         
1 66785U 25276EA  26193.77058367  .00003170  00000+0  25592-3 0  9994
2 66785  97.5239 263.8969 0003464  61.5211 298.6362 15.00534503 33980
LEMUR-2-HOTSPUR-TOM     
1 66786U 25276EB  26193.79254355  .00003477  00000+0  28941-3 0  9993
2 66786  97.5223 263.5388 0013783  53.6491 306.6002 14.99227481 33963
